{
  "norad_id": 64709,
  "name": "STARLINK-34499",
  "history": [
    {
      "epoch": "2026-03-28T20:28:56.398656Z",
      "apogee_km": 574.0543024472745,
      "perigee_km": 569.9859584693886,
      "latitude_deg": 3.338936671342747e-05,
      "longitude_deg": 132.5144022531232,
      "height_km": 574.4325557999572,
      "semi_major_axis_km": 6950.157130458331,
      "eccentricity": 0.00029268,
      "inclination_deg": 70.0008,
      "raan_deg": 266.0173,
      "arg_perigee_deg": 270.4231,
      "mean_anomaly_deg": 89.6593,
      "mean_motion_rev_day": 14.98341564
    },
    {
      "epoch": "2026-03-29T04:29:36.608928Z",
      "apogee_km": 574.1279481900083,
      "perigee_km": 569.9105933649016,
      "latitude_deg": -5.373055457949791e-05,
      "longitude_deg": 11.17582091445675,
      "height_km": 574.3694053975951,
      "semi_major_axis_km": 6950.156270777455,
      "eccentricity": 0.0003034,
      "inclination_deg": 70.0001,
      "raan_deg": 265.1753,
      "arg_perigee_deg": 272.1026,
      "mean_anomaly_deg": 87.9785,
      "mean_motion_rev_day": 14.98341842
    },
    {
      "epoch": "2026-03-29T04:29:36.609792Z",
      "apogee_km": 574.1277396853202,
      "perigee_km": 569.9108018695888,
      "latitude_deg": -5.698346158963255e-05,
      "longitude_deg": 11.175816127112864,
      "height_km": 574.3694130494829,
      "semi_major_axis_km": 6950.156270777455,
      "eccentricity": 0.00030337,
      "inclination_deg": 70.0001,
      "raan_deg": 265.1753,
      "arg_perigee_deg": 272.1026,
      "mean_anomaly_deg": 87.9785,
      "mean_motion_rev_day": 14.98341842
    },
    {
      "epoch": "2026-03-30T12:32:17.918304Z",
      "apogee_km": 573.8411539080516,
      "perigee_km": 570.2245635203717,
      "latitude_deg": 4.77136749920702e-05,
      "longitude_deg": -114.17769725662146,
      "height_km": 574.6452571036757,
      "semi_major_axis_km": 6950.169858714212,
      "eccentricity": 0.00026018,
      "inclination_deg": 70.0009,
      "raan_deg": 261.8099,
      "arg_perigee_deg": 264.1195,
      "mean_anomaly_deg": 95.9668,
      "mean_motion_rev_day": 14.98337448
    },
    {
      "epoch": "2026-03-30T20:32:58.713504Z",
      "apogee_km": 574.1250559360324,
      "perigee_km": 570.0347142948049,
      "latitude_deg": -1.152977312040542e-05,
      "longitude_deg": 124.48148797081916,
      "height_km": 574.4178047444047,
      "semi_major_axis_km": 6950.216885115418,
      "eccentricity": 0.00029426,
      "inclination_deg": 70.0007,
      "raan_deg": 260.9681,
      "arg_perigee_deg": 272.5083,
      "mean_anomaly_deg": 87.5739,
      "mean_motion_rev_day": 14.98322241
    },
    {
      "epoch": "2026-03-31T17:22:43.169664Z",
      "apogee_km": 573.9231043875825,
      "perigee_km": 570.1116397299447,
      "latitude_deg": -1.9470389959601958e-05,
      "longitude_deg": 169.00193500464948,
      "height_km": 574.5364168900425,
      "semi_major_axis_km": 6950.154372058763,
      "eccentricity": 0.0002742,
      "inclination_deg": 70.001,
      "raan_deg": 258.7792,
      "arg_perigee_deg": 267.2404,
      "mean_anomaly_deg": 92.8441,
      "mean_motion_rev_day": 14.98342456
    },
    {
      "epoch": "2026-04-01T17:24:44.046720Z",
      "apogee_km": 574.0646574382208,
      "perigee_km": 569.9988087293659,
      "latitude_deg": 1.2810961237963249e-05,
      "longitude_deg": 164.98506963812378,
      "height_km": 574.4821758189463,
      "semi_major_axis_km": 6950.168733083793,
      "eccentricity": 0.0002925,
      "inclination_deg": 69.9997,
      "raan_deg": 256.253,
      "arg_perigee_deg": 269.3497,
      "mean_anomaly_deg": 90.7327,
      "mean_motion_rev_day": 14.98337812
    },
    {
      "epoch": "2026-04-02T17:26:44.747520Z",
      "apogee_km": 574.1570440278902,
      "perigee_km": 569.8740820124558,
      "latitude_deg": 3.3117969034316426e-06,
      "longitude_deg": 160.97032512277792,
      "height_km": 574.45970899811,
      "semi_major_axis_km": 6950.152563020173,
      "eccentricity": 0.00030812,
      "inclination_deg": 70.001,
      "raan_deg": 253.7282,
      "arg_perigee_deg": 269.5579,
      "mean_anomaly_deg": 90.5227,
      "mean_motion_rev_day": 14.98343041
    },
    {
      "epoch": "2026-04-03T20:41:01.728384Z",
      "apogee_km": 574.394237158157,
      "perigee_km": 569.6431107394465,
      "latitude_deg": 1.0165078798610047e-05,
      "longitude_deg": 108.41964715468501,
      "height_km": 574.2329027872518,
      "semi_major_axis_km": 6950.155673948801,
      "eccentricity": 0.0003418,
      "inclination_deg": 70.0008,
      "raan_deg": 250.8669,
      "arg_perigee_deg": 275.16,
      "mean_anomaly_deg": 84.9169,
      "mean_motion_rev_day": 14.98342035
    },
    {
      "epoch": "2026-04-04T20:43:07.036896Z",
      "apogee_km": 575.0160302916056,
      "perigee_km": 569.8434185352962,
      "latitude_deg": 1.9650315530195493e-06,
      "longitude_deg": 104.38465006859636,
      "height_km": 572.386237724835,
      "semi_major_axis_km": 6950.56672441345,
      "eccentricity": 0.0003721,
      "inclination_deg": 69.9994,
      "raan_deg": 248.3411,
      "arg_perigee_deg": 342.6247,
      "mean_anomaly_deg": 17.4784,
      "mean_motion_rev_day": 14.98209121
    },
    {
      "epoch": "2026-04-05T14:00:03.000384Z",
      "apogee_km": 574.2466784682492,
      "perigee_km": 569.7788441956754,
      "latitude_deg": -66.21877756976752,
      "longitude_deg": 147.4006652438125,
      "height_km": 594.341381637127,
      "semi_major_axis_km": 6950.1497613319625,
      "eccentricity": 0.00032142,
      "inclination_deg": 70.0015,
      "raan_deg": 246.5252,
      "arg_perigee_deg": 270.4924,
      "mean_anomaly_deg": 12.8952,
      "mean_motion_rev_day": 14.98343947
    },
    {
      "epoch": "2026-04-05T19:08:57.195744Z",
      "apogee_km": 573.0986450949085,
      "perigee_km": 570.934367293079,
      "latitude_deg": 5.05803578995502e-05,
      "longitude_deg": 124.64987890983478,
      "height_km": 574.7954589685141,
      "semi_major_axis_km": 6950.153506193993,
      "eccentricity": 0.0001557,
      "inclination_deg": 70.0019,
      "raan_deg": 245.9865,
      "arg_perigee_deg": 250.9628,
      "mean_anomaly_deg": 109.1363,
      "mean_motion_rev_day": 14.98342736
    },
    {
      "epoch": "2026-04-07T03:11:37.130496Z",
      "apogee_km": 574.2863547865645,
      "perigee_km": 569.7955667989772,
      "latitude_deg": 9.222360778456278e-07,
      "longitude_deg": -0.6996549234609357,
      "height_km": 574.5343206054032,
      "semi_major_axis_km": 6950.17796079277,
      "eccentricity": 0.00032307,
      "inclination_deg": 70.0013,
      "raan_deg": 242.6194,
      "arg_perigee_deg": 268.3265,
      "mean_anomaly_deg": 91.7524,
      "mean_motion_rev_day": 14.98334828
    },
    {
      "epoch": "2026-04-07T19:12:57.640896Z",
      "apogee_km": 574.2730434234527,
      "perigee_km": 569.8096388927606,
      "latitude_deg": -2.260313885761801e-05,
      "longitude_deg": 116.62295949604491,
      "height_km": 574.5324838542869,
      "semi_major_axis_km": 6950.178341158106,
      "eccentricity": 0.0003211,
      "inclination_deg": 70.0015,
      "raan_deg": 240.9355,
      "arg_perigee_deg": 268.3731,
      "mean_anomaly_deg": 91.706,
      "mean_motion_rev_day": 14.98334705
    },
    {
      "epoch": "2026-04-08T16:02:42.374400Z",
      "apogee_km": 574.1514700338776,
      "perigee_km": 569.9168697434889,
      "latitude_deg": 2.504671370011932e-06,
      "longitude_deg": 161.14315589626565,
      "height_km": 574.4864636666368,
      "semi_major_axis_km": 6950.171169888683,
      "eccentricity": 0.00030464,
      "inclination_deg": 70.0022,
      "raan_deg": 238.7475,
      "arg_perigee_deg": 269.3336,
      "mean_anomaly_deg": 90.7474,
      "mean_motion_rev_day": 14.98337024
    },
    {
      "epoch": "2026-04-09T19:17:38.180832Z",
      "apogee_km": 581.5450356097344,
      "perigee_km": 569.2275644360734,
      "latitude_deg": 4.046889404406959e-05,
      "longitude_deg": 108.43216958162832,
      "height_km": 574.0421833376754,
      "semi_major_axis_km": 6953.523300022904,
      "eccentricity": 0.0008857,
      "inclination_deg": 70.0016,
      "raan_deg": 235.8881,
      "arg_perigee_deg": 307.7773,
      "mean_anomaly_deg": 52.2583,
      "mean_motion_rev_day": 14.97253685
    },
    {
      "epoch": "2026-04-10T11:18:20.715840Z",
      "apogee_km": 574.3545431028178,
      "perigee_km": 569.6729215695168,
      "latitude_deg": -4.5190499319089045e-05,
      "longitude_deg": -134.08737420467978,
      "height_km": 574.2398754282782,
      "semi_major_axis_km": 6950.1507323361675,
      "eccentricity": 0.0003368,
      "inclination_deg": 70.0013,
      "raan_deg": 234.2034,
      "arg_perigee_deg": 274.944,
      "mean_anomaly_deg": 85.1334,
      "mean_motion_rev_day": 14.98343633
    },
    {
      "epoch": "2026-04-11T19:21:01.431648Z",
      "apogee_km": 574.3038649207992,
      "perigee_km": 569.8043112103842,
      "latitude_deg": -2.665168640008916e-05,
      "longitude_deg": 100.5608540524316,
      "height_km": 574.5505629720676,
      "semi_major_axis_km": 6950.191088065591,
      "eccentricity": 0.0003237,
      "inclination_deg": 70.0013,
      "raan_deg": 230.8373,
      "arg_perigee_deg": 268.2505,
      "mean_anomaly_deg": 91.8283,
      "mean_motion_rev_day": 14.98330583
    },
    {
      "epoch": "2026-04-13T06:00:02.000160Z",
      "apogee_km": 574.4808391905999,
      "perigee_km": 569.7802342501654,
      "latitude_deg": -42.28790685668455,
      "longitude_deg": 134.96861500080266,
      "height_km": 586.01437030291,
      "semi_major_axis_km": 6950.267536720382,
      "eccentricity": 0.00033816,
      "inclination_deg": 70.0004,
      "raan_deg": 227.1981,
      "arg_perigee_deg": 266.3944,
      "mean_anomaly_deg": 319.0792,
      "mean_motion_rev_day": 14.98305862
    },
    {
      "epoch": "2026-04-14T14:38:39.507072Z",
      "apogee_km": 574.3264162638225,
      "perigee_km": 569.6726048563514,
      "latitude_deg": -3.7745366642441144e-05,
      "longitude_deg": 161.31744046128262,
      "height_km": 574.4419497669454,
      "semi_major_axis_km": 6950.136510560086,
      "eccentricity": 0.0003348,
      "inclination_deg": 70.0021,
      "raan_deg": 223.7662,
      "arg_perigee_deg": 269.6436,
      "mean_anomaly_deg": 90.4339,
      "mean_motion_rev_day": 14.98348232
    },
    {
      "epoch": "2026-04-15T16:16:48.654624Z",
      "apogee_km": 574.385698623857,
      "perigee_km": 569.7318475342026,
      "latitude_deg": -3.799812638186112e-05,
      "longitude_deg": 133.03559956837907,
      "height_km": 574.5085251544871,
      "semi_major_axis_km": 6950.195773079029,
      "eccentricity": 0.0003348,
      "inclination_deg": 70.0023,
      "raan_deg": 221.0753,
      "arg_perigee_deg": 269.4634,
      "mean_anomaly_deg": 90.6141,
      "mean_motion_rev_day": 14.98329068
    }
  ]
}